$$SOE
2461302.500000000, A.D. 2026-Sep-19 00:00:00.0000, 6.360311090258379E+09, 2.859598804275508E+09, -6.602195192980134E+07,
2461309.500000000, A.D. 2026-Sep-26 00:00:00.0000, 6.359237090803994E+09, 2.861879850104656E+09, -6.564756189024031E+07,
2461316.500000000, A.D. 2026-Oct-03 00:00:00.0000, 6.358162204867403E+09, 2.864160431866734E+09, -6.527316231820583E+07,
2461323.500000000, A.D. 2026-Oct-10 00:00:00.0000, 6.357086432287260E+09, 2.866440547111444E+09, -6.489875322987568E+07,
2461330.500000000, A.D. 2026-Oct-17 00:00:00.0000, 6.356009773283376E+09, 2.868720193253507E+09, -6.452433466524684E+07,
2461337.500000000, A.D. 2026-Oct-24 00:00:00.0000, 6.354932228394880E+09, 2.870999367545701E+09, -6.414990669033289E+07,
2461344.500000000, A.D. 2026-Oct-31 00:00:00.0000, 6.353853798506589E+09, 2.873278066889191E+09, -6.377546942138982E+07,
2461351.500000000, A.D. 2026-Nov-07 00:00:00.0000, 6.352774485302656E+09, 2.875556287555207E+09, -6.340102309605753E+07,
2461358.500000000, A.D. 2026-Nov-14 00:00:00.0000, 6.351694292348366E+09, 2.877834025705526E+09, -6.302656813712144E+07,
2461365.500000000, A.D. 2026-Nov-21 00:00:00.0000, 6.350613224988351E+09, 2.880111279393603E+09, -6.265210498675954E+07,
2461372.500000000, A.D. 2026-Nov-28 00:00:00.0000, 6.349531288063094E+09, 2.882388049038318E+09, -6.227763386530638E+07,
2461379.500000000, A.D. 2026-Dec-05 00:00:00.0000, 6.348448485063291E+09, 2.884664335713984E+09, -6.190315483985436E+07,
2461386.500000000, A.D. 2026-Dec-12 00:00:00.0000, 6.347364818886978E+09, 2.886940140367615E+09, -6.152866796329582E+07,
2461393.500000000, A.D. 2026-Dec-19 00:00:00.0000, 6.346280292312173E+09, 2.889215463969871E+09, -6.115417330992448E+07,
2461400.500000000, A.D. 2026-Dec-26 00:00:00.0000, 6.345194908042584E+09, 2.891490307731614E+09, -6.077967096525109E+07,
2461407.500000000, A.D. 2027-Jan-02 00:00:00.0000, 6.344108668601977E+09, 2.893764673195030E+09, -6.040516101076448E+07,
2461414.500000000, A.D. 2027-Jan-09 00:00:00.0000, 6.343021576193522E+09, 2.896038562219323E+09, -6.003064351259303E+07,
2461421.500000000, A.D. 2027-Jan-16 00:00:00.0000, 6.341933632558419E+09, 2.898311976869571E+09, -5.965611851650608E+07,
2461428.500000000, A.D. 2027-Jan-23 00:00:00.0000, 6.340844838878369E+09, 2.900584919168925E+09, -5.928158605669892E+07,
2461435.500000000, A.D. 2027-Jan-30 00:00:00.0000, 6.339755195908026E+09, 2.902857390666175E+09, -5.890704619951177E+07,
2461442.500000000, A.D. 2027-Feb-06 00:00:00.0000, 6.338664704760520E+09, 2.905129392158545E+09, -5.853249913334131E+07,
2461449.500000000, A.D. 2027-Feb-13 00:00:00.0000, 6.337573367884165E+09, 2.907400924789283E+09, -5.815794516298413E+07,
2461456.500000000, A.D. 2027-Feb-20 00:00:00.0000, 6.336481187865176E+09, 2.909671991728942E+09, -5.778338445642292E+07,
2461463.500000000, A.D. 2027-Feb-27 00:00:00.0000, 6.335388165451339E+09, 2.911942597226626E+09, -5.740881693491161E+07,
2461470.500000000, A.D. 2027-Mar-06 00:00:00.0000, 6.334294299814156E+09, 2.914212744953775E+09, -5.703424242626107E+07,
2461477.500000000, A.D. 2027-Mar-13 00:00:00.0000, 6.333199589448902E+09, 2.916482437689927E+09, -5.665966076725173E+07,
2461484.500000000, A.D. 2027-Mar-20 00:00:00.0000, 6.332104032583047E+09, 2.918751677515828E+09, -5.628507181998944E+07,
2461491.500000000, A.D. 2027-Mar-27 00:00:00.0000, 6.331007627294979E+09, 2.921020465964940E+09, -5.591047546572340E+07,
2461498.500000000, A.D. 2027-Apr-03 00:00:00.0000, 6.329910371545987E+09, 2.923288804085609E+09, -5.553587159875095E+07,
2461505.500000000, A.D. 2027-Apr-10 00:00:00.0000, 6.328812263186667E+09, 2.925556692436962E+09, -5.516126012421441E+07,
2461512.500000000, A.D. 2027-Apr-17 00:00:00.0000, 6.327713299959892E+09, 2.927824131004220E+09, -5.478664096303368E+07,
2461519.500000000, A.D. 2027-Apr-24 00:00:00.0000, 6.326613479579519E+09, 2.930091118971260E+09, -5.441201407633471E+07,
2461526.500000000, A.D. 2027-May-01 00:00:00.0000, 6.325512800184487E+09, 2.932357654378252E+09, -5.403737953460550E+07,
2461533.500000000, A.D. 2027-May-08 00:00:00.0000, 6.324411261475686E+09, 2.934623734412743E+09, -5.366273759858334E+07,
2461540.500000000, A.D. 2027-May-15 00:00:00.0000, 6.323308865038749E+09, 2.936889357287642E+09, -5.328808859665704E+07,
2461547.500000000, A.D. 2027-May-22 00:00:00.0000, 6.322205612288865E+09, 2.939154523114497E+09, -5.291343266711259E+07,
2461554.500000000, A.D. 2027-May-29 00:00:00.0000, 6.321101503393579E+09, 2.941419232303802E+09, -5.253876979293990E+07,
2461561.500000000, A.D. 2027-Jun-05 00:00:00.0000, 6.319996538058391E+09, 2.943683484624092E+09, -5.216409995432591E+07,
2461568.500000000, A.D. 2027-Jun-12 00:00:00.0000, 6.318890716167636E+09, 2.945947279351616E+09, -5.178942317931199E+07,
2461575.500000000, A.D. 2027-Jun-19 00:00:00.0000, 6.317784037949629E+09, 2.948210615575578E+09, -5.141473953852081E+07,
2461582.500000000, A.D. 2027-Jun-26 00:00:00.0000, 6.316676503945474E+09, 2.950473492397622E+09, -5.104004913076174E+07,
2461589.500000000, A.D. 2027-Jul-03 00:00:00.0000, 6.315568114913692E+09, 2.952735909033893E+09, -5.066535207073200E+07,
2461596.500000000, A.D. 2027-Jul-10 00:00:00.0000, 6.314458871707481E+09, 2.954997864828341E+09, -5.029064848125052E+07,
2461603.500000000, A.D. 2027-Jul-17 00:00:00.0000, 6.313348775160974E+09, 2.957259359138461E+09, -4.991593849627495E+07,
2461610.500000000, A.D. 2027-Jul-24 00:00:00.0000, 6.312237826140920E+09, 2.959520391030632E+09, -4.954122229394436E+07,
2461617.500000000, A.D. 2027-Jul-31 00:00:00.0000, 6.311126026175224E+09, 2.961780959020582E+09, -4.916650017789805E+07,
2461624.500000000, A.D. 2027-Aug-07 00:00:00.0000, 6.310013378457600E+09, 2.964041062010696E+09, -4.879177259417105E+07,
2461631.500000000, A.D. 2027-Aug-14 00:00:00.0000, 6.308899886927248E+09, 2.966300701170868E+09, -4.841703989318836E+07,
2461638.500000000, A.D. 2027-Aug-21 00:00:00.0000, 6.307785554041751E+09, 2.968559879398711E+09, -4.804230216847205E+07,
2461645.500000000, A.D. 2027-Aug-28 00:00:00.0000, 6.306670380674274E+09, 2.970818599562336E+09, -4.766755938843739E+07,
2461652.500000000, A.D. 2027-Sep-04 00:00:00.0000, 6.305554366953894E+09, 2.973076864028020E+09, -4.729281150856733E+07,
2461659.500000000, A.D. 2027-Sep-11 00:00:00.0000, 6.304437512653761E+09, 2.975334674811431E+09, -4.691805849024701E+07,
2461666.500000000, A.D. 2027-Sep-18 00:00:00.0000, 6.303319817260286E+09, 2.977592033702386E+09, -4.654330029184461E+07,
2461673.500000000, A.D. 2027-Sep-25 00:00:00.0000, 6.302201279952195E+09, 2.979848942285680E+09, -4.616853685963738E+07,
2461680.500000000, A.D. 2027-Oct-02 00:00:00.0000, 6.301081899564514E+09, 2.982105401885941E+09, -4.579376812348258E+07,
2461687.500000000, A.D. 2027-Oct-09 00:00:00.0000, 6.299961674560042E+09, 2.984361413432367E+09, -4.541899399991548E+07,
2461694.500000000, A.D. 2027-Oct-16 00:00:00.0000, 6.298840603071518E+09, 2.986616977188899E+09, -4.504421441317320E+07,
2461701.500000000, A.D. 2027-Oct-23 00:00:00.0000, 6.297718683274532E+09, 2.988872092344540E+09, -4.466942935864091E+07,
2461708.500000000, A.D. 2027-Oct-30 00:00:00.0000, 6.296595914466023E+09, 2.991126757074483E+09, -4.429463899334681E+07,
2461715.500000000, A.D. 2027-Nov-06 00:00:00.0000, 6.295472297685026E+09, 2.993380970200482E+09, -4.391984355470502E+07,
2461722.500000000, A.D. 2027-Nov-13 00:00:00.0000, 6.294347833890323E+09, 2.995634732374478E+09, -4.354504309515822E+07,
2461729.500000000, A.D. 2027-Nov-20 00:00:00.0000, 6.293222522596908E+09, 2.997888044599787E+09, -4.317023747751176E+07,
2461736.500000000, A.D. 2027-Nov-27 00:00:00.0000, 6.292096362588870E+09, 3.000140907054409E+09, -4.279542653703463E+07,
2461743.500000000, A.D. 2027-Dec-04 00:00:00.0000, 6.290969352685150E+09, 3.002393319130488E+09, -4.242061014999676E+07,
2461750.500000000, A.D. 2027-Dec-11 00:00:00.0000, 6.289841492007607E+09, 3.004645279726032E+09, -4.204578823688960E+07,
2461757.500000000, A.D. 2027-Dec-18 00:00:00.0000, 6.288712780026375E+09, 3.006896787449872E+09, -4.167096075317168E+07,
2461764.500000000, A.D. 2027-Dec-25 00:00:00.0000, 6.287583216534500E+09, 3.009147840737828E+09, -4.129612768157446E+07,
2461771.500000000, A.D. 2028-Jan-01 00:00:00.0000, 6.286452801593262E+09, 3.011398437894751E+09, -4.092128902846575E+07,
$$EOE